*******************************************************************************
Ephemeris / WWW_USER Mon Jul 15 19:31:01 2024 Pasadena, USA      / Horizons    
*******************************************************************************
Target body name: Hale-Bopp (C/1995 O1)           {source: JPL#226}
Center body name: Earth (399)                     {source: DE441}
Center-site name: Gemini South Obs., Cerro Pachon
*******************************************************************************
Start time      : A.D. 2018-Nov-13 23:24:00.0000 UT      
Stop  time      : A.D. 2018-Nov-14 09:30:00.0000 UT      
Step-size       : 1 minutes
*******************************************************************************
Target pole/equ : undefined
Target radii    : 30. km                                                       
Center geodetic : 289.2634, -30.2406227, 2.71233  {E-lon(deg),Lat(deg),Alt(km)}
Center cylindric: 289.2634,5517.21435,-3194.81213 {E-lon(deg),Dxy(km),Dz(km)}
Center pole/equ : ITRF93                          {East-longitude positive}
Center radii    : 6378.137, 6378.137, 6356.752 km {Equator_a, b, pole_c}       
Target primary  : Sun
Vis. interferer : MOON (R_eq= 1737.400) km        {source: DE441}
Rel. light bend : Sun                             {source: DE441}
Rel. lght bnd GM: 1.3271E+11 km^3/s^2                                          
Small-body perts: Yes                             {source: SB441-N16}
Atmos refraction: NO (AIRLESS)
RA format       : HMS
Time format     : CAL 
Calendar mode   : Mixed Julian/Gregorian
RTS-only print  : NO       
EOP file        : eop.240715.p241008                                           
EOP coverage    : DATA-BASED 1962-JAN-20 TO 2024-JUL-15. PREDICTS-> 2024-OCT-07
Units conversion: 1 au= 149597870.700 km, c= 299792.458 km/s, 1 day= 86400.0 s 
Table cut-offs 1: Elevation (-90.0deg=NO ),Airmass (>38.000=NO), Daylight (YES)
Table cut-offs 2: Solar elongation (  0.0,180.0=NO ),Local Hour Angle( 0.0=NO )
Table cut-offs 3: RA/DEC angular rate (     0.0=NO )                           
*******************************************************************************
Initial IAU76/J2000 heliocentric ecliptic osculating elements (au, days, deg.):
  EPOCH=  2459837.5 ! 2022-Sep-15.0000000 (TDB)    RMSW= n.a.                  
   EC= .9949810027633206   QR= .890537663547794    TP= 2450537.1349071441      
   OM= 282.7334213961641   W= 130.4146670659176    IN= 89.28759424740302       
  Equivalent ICRF heliocentric cartesian coordinates (au, au/d):
   X= 3.907631452214869E+00  Y=-1.373895334060347E+00  Z=-4.624358508575312E+01
  VX= 3.778244409519935E-04 VY=-5.803173067116371E-04 VZ=-3.255716412104052E-03
Comet physical (GM= km^3/s^2; RAD= km):                                        
   GM= n.a.                RAD= 30.                                            
   M1=  4.8      M2=  n.a.     k1=  4.     k2= n.a.     PHCOF= n.a.            
*******************************************************************************
 Date__(UT)__HR:MN     R.A._________(ICRF)_________DEC
******************************************************
$$SOE
 2018-Nov-14 03:32  m  22 21 09.962808 -85 52 29.75392
 2018-Nov-14 03:33  m  22 21 09.951339 -85 52 29.69661
 2018-Nov-14 03:34  m  22 21 09.939874 -85 52 29.63930
 2018-Nov-14 03:35  m  22 21 09.928412 -85 52 29.58199
 2018-Nov-14 03:36  m  22 21 09.916954 -85 52 29.52467
 2018-Nov-14 03:37  m  22 21 09.905499 -85 52 29.46735
 2018-Nov-14 03:38  m  22 21 09.894047 -85 52 29.41004
 2018-Nov-14 03:39  m  22 21 09.882599 -85 52 29.35271
 2018-Nov-14 03:40  m  22 21 09.871155 -85 52 29.29539
 2018-Nov-14 03:41  m  22 21 09.859714 -85 52 29.23807
 2018-Nov-14 03:42  m  22 21 09.848277 -85 52 29.18074
 2018-Nov-14 03:43  m  22 21 09.836843 -85 52 29.12341
 2018-Nov-14 03:44  m  22 21 09.825413 -85 52 29.06608
 2018-Nov-14 03:45  m  22 21 09.813987 -85 52 29.00875
 2018-Nov-14 03:46  m  22 21 09.802563 -85 52 28.95142
 2018-Nov-14 03:47  m  22 21 09.791144 -85 52 28.89408
 2018-Nov-14 03:48  m  22 21 09.779728 -85 52 28.83675
 2018-Nov-14 03:49  m  22 21 09.768316 -85 52 28.77941
 2018-Nov-14 03:50  m  22 21 09.756907 -85 52 28.72207
 2018-Nov-14 03:51  m  22 21 09.745502 -85 52 28.66472
 2018-Nov-14 03:52  m  22 21 09.734101 -85 52 28.60738
 2018-Nov-14 03:53  m  22 21 09.722703 -85 52 28.55004
 2018-Nov-14 03:54  m  22 21 09.711309 -85 52 28.49269
 2018-Nov-14 03:55  m  22 21 09.699918 -85 52 28.43534
 2018-Nov-14 03:56  m  22 21 09.688531 -85 52 28.37799
 2018-Nov-14 03:57  m  22 21 09.677148 -85 52 28.32064
 2018-Nov-14 03:58  m  22 21 09.665768 -85 52 28.26328
 2018-Nov-14 03:59  m  22 21 09.654392 -85 52 28.20593
 2018-Nov-14 04:00  m  22 21 09.643019 -85 52 28.14857
 2018-Nov-14 04:01  m  22 21 09.631651 -85 52 28.09121
 2018-Nov-14 04:02  m  22 21 09.620286 -85 52 28.03385
 2018-Nov-14 04:03  m  22 21 09.608924 -85 52 27.97649
 2018-Nov-14 04:04  m  22 21 09.597566 -85 52 27.91913
 2018-Nov-14 04:05  m  22 21 09.586212 -85 52 27.86177
 2018-Nov-14 04:06  m  22 21 09.574862 -85 52 27.80440
 2018-Nov-14 04:07  m  22 21 09.563515 -85 52 27.74703
 2018-Nov-14 04:08  m  22 21 09.552172 -85 52 27.68966
 2018-Nov-14 04:09  m  22 21 09.540833 -85 52 27.63229
 2018-Nov-14 04:10  m  22 21 09.529497 -85 52 27.57492
 2018-Nov-14 04:11  m  22 21 09.518165 -85 52 27.51755
 2018-Nov-14 04:12  m  22 21 09.506837 -85 52 27.46017
 2018-Nov-14 04:13  m  22 21 09.495513 -85 52 27.40280
 2018-Nov-14 04:14  m  22 21 09.484192 -85 52 27.34542
 2018-Nov-14 04:15  m  22 21 09.472875 -85 52 27.28804
 2018-Nov-14 04:16  m  22 21 09.461562 -85 52 27.23066
 2018-Nov-14 04:17  m  22 21 09.450252 -85 52 27.17328
 2018-Nov-14 04:18  m  22 21 09.438947 -85 52 27.11590
 2018-Nov-14 04:19  m  22 21 09.427645 -85 52 27.05852
 2018-Nov-14 04:20  m  22 21 09.416346 -85 52 27.00113
 2018-Nov-14 04:21  m  22 21 09.405052 -85 52 26.94375
 2018-Nov-14 04:22  m  22 21 09.393761 -85 52 26.88636
 2018-Nov-14 04:23  m  22 21 09.382474 -85 52 26.82897
 2018-Nov-14 04:24  m  22 21 09.371191 -85 52 26.77158
 2018-Nov-14 04:25  m  22 21 09.359911 -85 52 26.71419
 2018-Nov-14 04:26  m  22 21 09.348636 -85 52 26.65680
 2018-Nov-14 04:27  m  22 21 09.337364 -85 52 26.59940
 2018-Nov-14 04:28  m  22 21 09.326096 -85 52 26.54201
 2018-Nov-14 04:29  m  22 21 09.314831 -85 52 26.48461
 2018-Nov-14 04:30  m  22 21 09.303571 -85 52 26.42721
 2018-Nov-14 04:31  m  22 21 09.292314 -85 52 26.36982
 2018-Nov-14 04:32  m  22 21 09.281061 -85 52 26.31242
 2018-Nov-14 04:33  m  22 21 09.269812 -85 52 26.25502
 2018-Nov-14 04:34  m  22 21 09.258567 -85 52 26.19761
 2018-Nov-14 04:35  m  22 21 09.247325 -85 52 26.14021
 2018-Nov-14 04:36  m  22 21 09.236087 -85 52 26.08281
 2018-Nov-14 04:37  m  22 21 09.224854 -85 52 26.02540
 2018-Nov-14 04:38  m  22 21 09.213623 -85 52 25.96800
 2018-Nov-14 04:39  m  22 21 09.202397 -85 52 25.91059
 2018-Nov-14 04:40  m  22 21 09.191175 -85 52 25.85318
 2018-Nov-14 04:41     22 21 09.179956 -85 52 25.79578
 2018-Nov-14 04:42     22 21 09.168741 -85 52 25.73837
 2018-Nov-14 04:43     22 21 09.157531 -85 52 25.68096
 2018-Nov-14 04:44     22 21 09.146324 -85 52 25.62354
 2018-Nov-14 04:45     22 21 09.135120 -85 52 25.56613
 2018-Nov-14 04:46     22 21 09.123921 -85 52 25.50872
 2018-Nov-14 04:47     22 21 09.112725 -85 52 25.45130
 2018-Nov-14 04:48     22 21 09.101534 -85 52 25.39389
 2018-Nov-14 04:49     22 21 09.090346 -85 52 25.33647
 2018-Nov-14 04:50     22 21 09.079162 -85 52 25.27906
 2018-Nov-14 04:51     22 21 09.067982 -85 52 25.22164
 2018-Nov-14 04:52     22 21 09.056806 -85 52 25.16422
 2018-Nov-14 04:53     22 21 09.045633 -85 52 25.10680
 2018-Nov-14 04:54     22 21 09.034465 -85 52 25.04938
 2018-Nov-14 04:55     22 21 09.023300 -85 52 24.99196
 2018-Nov-14 04:56     22 21 09.012139 -85 52 24.93454
 2018-Nov-14 04:57     22 21 09.000982 -85 52 24.87712
 2018-Nov-14 04:58     22 21 08.989829 -85 52 24.81969
 2018-Nov-14 04:59     22 21 08.978680 -85 52 24.76227
 2018-Nov-14 05:00     22 21 08.967535 -85 52 24.70485
 2018-Nov-14 05:01     22 21 08.956393 -85 52 24.64742
 2018-Nov-14 05:02     22 21 08.945256 -85 52 24.59000
 2018-Nov-14 05:03     22 21 08.934122 -85 52 24.53257
 2018-Nov-14 05:04     22 21 08.922993 -85 52 24.47514
 2018-Nov-14 05:05     22 21 08.911867 -85 52 24.41772
 2018-Nov-14 05:06     22 21 08.900745 -85 52 24.36029
 2018-Nov-14 05:07     22 21 08.889627 -85 52 24.30286
 2018-Nov-14 05:08     22 21 08.878513 -85 52 24.24543
 2018-Nov-14 05:09     22 21 08.867402 -85 52 24.18800
 2018-Nov-14 05:10     22 21 08.856296 -85 52 24.13057
 2018-Nov-14 05:11     22 21 08.845193 -85 52 24.07314
 2018-Nov-14 05:12     22 21 08.834095 -85 52 24.01571
 2018-Nov-14 05:13     22 21 08.823000 -85 52 23.95827
 2018-Nov-14 05:14     22 21 08.811909 -85 52 23.90084
 2018-Nov-14 05:15     22 21 08.800822 -85 52 23.84341
 2018-Nov-14 05:16     22 21 08.789739 -85 52 23.78598
 2018-Nov-14 05:17     22 21 08.778660 -85 52 23.72854
 2018-Nov-14 05:18     22 21 08.767585 -85 52 23.67111
 2018-Nov-14 05:19     22 21 08.756514 -85 52 23.61367
 2018-Nov-14 05:20     22 21 08.745447 -85 52 23.55624
 2018-Nov-14 05:21     22 21 08.734383 -85 52 23.49880
 2018-Nov-14 05:22     22 21 08.723324 -85 52 23.44137
 2018-Nov-14 05:23     22 21 08.712268 -85 52 23.38393
 2018-Nov-14 05:24     22 21 08.701216 -85 52 23.32649
 2018-Nov-14 05:25     22 21 08.690168 -85 52 23.26906
 2018-Nov-14 05:26     22 21 08.679124 -85 52 23.21162
 2018-Nov-14 05:27     22 21 08.668084 -85 52 23.15418
 2018-Nov-14 05:28     22 21 08.657048 -85 52 23.09675
 2018-Nov-14 05:29     22 21 08.646016 -85 52 23.03931
 2018-Nov-14 05:30     22 21 08.634988 -85 52 22.98187
 2018-Nov-14 05:31     22 21 08.623964 -85 52 22.92443
 2018-Nov-14 05:32     22 21 08.612943 -85 52 22.86699
 2018-Nov-14 05:33     22 21 08.601927 -85 52 22.80955
 2018-Nov-14 05:34     22 21 08.590914 -85 52 22.75212
 2018-Nov-14 05:35     22 21 08.579905 -85 52 22.69468
